[{"OBJECT_NAME":"YUNHAI-2 02E","OBJECT_ID":"2024-052E","EPOCH":"2026-03-09T23:04:08.218272","MEAN_MOTION":14.27923834,"ECCENTRICITY":0.00117453,"INCLINATION":50.0117,"RA_OF_ASC_NODE":23.2487,"ARG_OF_PERICENTER":69.3739,"MEAN_ANOMALY":290.8434,"EPHEMERIS_TYPE":0,"CLASSIFICATION_TYPE":"U","NORAD_CAT_ID":59284,"ELEMENT_SET_NO":999,"REV_AT_EPOCH":9275,"BSTAR":0.0001398659,"MEAN_MOTION_DOT":1.88e-6,"MEAN_MOTION_DDOT":0},{"OBJECT_NAME":"FENGYUN 1C DEB","OBJECT_ID":"1999-025EZK","EPOCH":"2026-03-08T17:45:52.288128","MEAN_MOTION":14.25572341,"ECCENTRICITY":0.00410757,"INCLINATION":98.8763,"RA_OF_ASC_NODE":161.5547,"ARG_OF_PERICENTER":343.7506,"MEAN_ANOMALY":168.1035,"EPHEMERIS_TYPE":0,"CLASSIFICATION_TYPE":"U","NORAD_CAT_ID":46468,"ELEMENT_SET_NO":999,"REV_AT_EPOCH":75041,"BSTAR":0.0020522938,"MEAN_MOTION_DOT":4.857e-5,"MEAN_MOTION_DDOT":0}]
